#aV2023  4 29  0  0  0.00000000     288 DD+AD WGS84 FIT  NGA
## 2259 518400.00000000   300.00000000 60063 0.0000000000000
+   32     1  2  3  4  5  6  7  8  9 10 11 12 13 14 15 16 17
+         18 19 20 21 22 23 24 25 26 27 28 29 30 31 32  0  0
+          0  0  0  0  0  0  0  0  0  0  0  0  0  0  0  0  0
+          0  0  0  0  0  0  0  0  0  0  0  0  0  0  0  0  0
+          0  0  0  0  0  0  0  0  0  0  0  0  0  0  0  0  0
++         2  2  2  2  2  2  2  2  2  2  2  2  2  2  2  2  2
++         2  2  2  2  2  2  2  2  2  2  2  2  2  2  2  0  0
++         0  0  0  0  0  0  0  0  0  0  0  0  0  0  0  0  0
++         0  0  0  0  0  0  0  0  0  0  0  0  0  0  0  0  0
++         0  0  0  0  0  0  0  0  0  0  0  0  0  0  0  0  0
%c cc cc ccc ccc cccc cccc cccc cccc ccccc ccccc ccccc ccccc
%c cc cc ccc ccc cccc cccc cccc cccc ccccc ccccc ccccc ccccc
%f  0.0000000  0.000000000  0.00000000000  0.000000000000000
%f  0.0000000  0.000000000  0.00000000000  0.000000000000000
%i    0    0    0    0      0      0      0      0         0
%i    0    0    0    0      0      0      0      0         0
/*      NGA, ST. LOUIS,MO.                                  
/*   EPHEMERIS COMPUTED FROM 2 DAYS OF DATA                 
/*   EPOCHA v8 SMOOTHER                                     
/*   G2139 IERS2010 SATIGS SATAPC                           
*  2023  4 29 13 55  0.00000000
P  1  13403.088347 -21944.471850  -6176.445949    189.244324                    
V  1   6404.238287  -4347.698890  31342.828180     -0.030689                    
P  2   9349.307510  12942.907342  21874.728480   -601.258641                    
V  2 -15311.025799  21414.056301  -6057.310198      0.038062                    
P  3   7943.500393 -13413.447522 -21614.538828   -317.146527                    
V  3  26651.186878   4990.128670   6854.999979      0.100106                    
P  4   2278.185827 -22716.113157 -13465.921422     28.796127                    
V  4   7598.295400  15552.543293 -25035.975664      0.094833                    
P  5 -22748.414546   5857.060800  12338.579230   -125.266073                    
V  5 -15515.678529  -4047.768036 -26199.329982     -0.014577                    
P  6 -14585.571098  -4743.846028 -21636.479893    587.932248                    
V  6  17407.272478 -21323.661976  -6943.181908      0.004941                    
P  7    614.335607 -20222.179629  17405.110997    190.224118                    
V  7  15265.123986 -15206.224889 -19180.924640     -0.089179                    
P  8  10309.795506 -13015.031810  20571.894352   -120.060589                    
V  8  10921.831039  24045.001816  10091.299783     -0.018102                    
P  9  -6794.825237 -25293.728210  -4345.252393   -169.749168                    
V  9   4762.975143   3957.093045 -31025.078487      0.081570                    
P 10  21394.707642  11337.011408  11446.285957    -34.851851                    
V 10 -14208.991791   -656.906762  27339.064000     -0.015482                    
P 11 -20894.272108   8563.551091 -13948.396328   -179.048150                    
V 11  10419.268188 -14494.992619 -24525.688781     -0.132286                    
P 12 -11484.273164  12119.995969 -20916.303065   -369.870562                    
V 12 -25020.336060  -6847.554374   9988.370028     -0.046599                    
P 13 -14165.399762   4966.731846  21726.793810    512.790775                    
V 13  -6373.847856 -27259.506831   2257.596925      0.054639                    
P 14 -18806.269987 -13425.019128  13235.371082     40.330772                    
V 14  16910.152599    912.487804  24825.721297      0.122357                    
P 15  -8631.303541  14841.014065  19746.836210     34.999849                    
V 15 -13850.669331 -22359.394818  10774.087666      0.034375                    
P 16  24779.760704   -605.500044   9833.357895   -505.156091                    
V 16  11839.270534   5254.468781 -28177.513393      0.030146                    
P 17 -13090.888335 -20798.666079  -9512.135178    712.772947                    
V 17  -1471.948951 -12839.006165  28912.282695      0.016624                    
P 18   1618.421374  18196.769829  19223.989822   -245.131546                    
V 18 -16825.448601  17750.491365 -15530.521045     -0.162265                    
P 19 -15538.601934 -13463.781271 -17202.993707    310.163362                    
V 19  -4046.849134 -20910.369120  20003.875646      0.051080                    
P 20 -26167.174815   2322.011902   3160.468647    436.335371                    
V 20  -4006.867811  -3342.878795 -31257.122205     -0.021124                    
P 21  17069.369812 -19360.228925   4388.928030    154.049807                    
V 21    -51.019018   6064.549127  31681.726974     -0.001383                    
P 22  16041.203837  10088.919285 -18226.834188    472.716825                    
V 22   5059.997220  23521.359337  16897.657437      0.066473                    
P 23  10654.916226  14773.937968  19387.716564     20.312648                    
V 23 -24439.668374  -2283.000225  15029.262090      0.028364                    
P 24 -14234.717646  22137.310597  -1077.009814   -170.154412                    
V 24  -3862.036883  -1471.682073  31387.401302     -0.142506                    
P 25   1420.382093  15777.034631 -21660.591020    439.201951                    
V 25 -26490.738315  -3810.709437  -4314.713393      0.027870                    
P 26  26195.839387   4673.969912  -2818.243235    241.352618                    
V 26  -3727.327038   2968.297437 -30669.052675     -0.003718                    
P 27  15471.487337   -706.911184  21376.402798     48.263645                    
V 27   9492.266404  25978.613874  -5537.764283     -0.082600                    
P 28  13923.715736   6646.868665 -21643.726192     72.054066                    
V 28 -16419.521753  21963.542730  -3827.207818      0.048708                    
P 29   2098.731452  25375.587615  -7462.433828   -597.488618                    
V 29  -4764.518222  -8412.337112 -30251.326430     -0.014798                    
P 30  -9720.724045 -12767.283387  21247.518684   -519.915958                    
V 30  17725.816472 -20182.842271  -4304.036954      0.019876                    
P 31  19216.190322  -2144.496478 -18577.320608   -215.044562                    
V 31 -14102.708219  18323.834116 -16424.472250     -0.008324                    
P 32  15649.417464  18089.780635 -11577.612480   -464.032386                    
V 32   3170.898552  14752.432334  26725.974137     -0.096411                    
EOF
